ICEYE-X65               
1 66300U 25248H   26193.85451662  .00001905  00000+0  13812-3 0  9996
2 66300  45.4057 359.2087 0005316 186.8158 173.2652 15.07919894 39391
ICEYE-X66               
1 66301U 25248J   26193.85415166  .00002061  00000+0  14330-3 0  9996
2 66301  45.4024 358.3162 0004930 182.8177 177.2678 15.09167986 39388
ICEYE-X67               
1 66302U 25248K   26193.48163581  .00001870  00000+0  13157-3 0  9990
2 66302  45.4063 359.8564 0006449 180.6538 179.4337 15.09148785 39346
STARCLOUD-1             
1 66303U 25248L   26193.43871520  .00003239  00000+0  15361-3 0  9995
2 66303  45.4034 344.7592 0005756 199.5621 160.5046 15.21547701 38387
BANDWAGON-4 OBJECT M    
1 66304U 25248M   26193.42325557  .00010048  00000+0  36527-3 0  9992
2 66304  45.4184 336.6575 0010338 216.4253 143.5934 15.28521834 37198
BANDWAGON-4 OBJECT N    
1 66305U 25248N   26193.47433067  .00011419  00000+0  41136-3 0  9999
2 66305  45.4211 336.2173 0010889 207.8189 152.2119 15.28692675 36343
BANDWAGON-4 OBJECT P    
1 66306U 25248P   26193.45785375  .00010338  00000+0  37890-3 0  9991
2 66306  45.4053 336.7503 0013658 220.4688 139.5187 15.28187804 38463
BANDWAGON-4 OBJECT Q    
1 66307U 25248Q   26193.74319999  .00010719  00000+0  39567-3 0  9995
2 66307  45.3891 335.3725 0011327 215.8882 144.1247 15.27942012 38513
TOMORROW-S8             
1 66308U 25248R   26193.46215079  .00001841  00000+0  94892-4 0  9998
2 66308  45.3980 345.6616 0004493 190.2971 169.7824 15.20716119 38364
TOMORROW-S9             
1 66309U 25248S   26193.49413046  .00002915  00000+0  14277-3 0  9997
2 66309  45.4059 346.0538 0004138 215.3498 144.7114 15.20723796 38364
CMS-03 (GSAT-7R)        
1 66311U 25249B   26193.83844983 -.00000077  00000+0  00000+0 0  9990
2 66311   0.0348 267.3121 0001451 171.5485 227.6772  1.00271134  2608
YAOGAN-46               
1 66313U 25250A   26192.42899727 -.00000026  00000+0  00000+0 0  9998
2 66313  20.0811 322.8026 0004830 167.6123 192.4233  5.31203643 13383
SENTINEL-1D             
1 66315U 25251A   26193.53845789 -.00000248  00000+0 -42969-4 0  9995
2 66315  98.1831 200.5414 0001402  90.2222 269.9138 14.59196831 36423
QPS-SAR-14 (YACHIHOKO-I)
1 66316U 25252A   26193.50177879  .00002408  00000+0  20592-3 0  9997
2 66316  42.0046 352.6340 0004518  50.4407 309.6817 14.99804129 37316
STARLINK-35442          
1 66319U 25253A   26193.40074299  .00012141  00000+0  44994-3 0  9999
2 66319  42.9991 228.5380 0000616 320.4721  39.6085 15.27583811 39319
STARLINK-34616          
1 66320U 25253B   26193.54294154  .00007644  00000+0  28687-3 0  9993
2 66320  43.0015 227.0192 0001356 266.9909  93.0788 15.27595489 39429
STARLINK-34615          
1 66321U 25253C   26193.43784854  .00009725  00000+0  36233-3 0  9991
2 66321  43.0005 227.9272 0002242 256.2456 103.8146 15.27591209 39324
STARLINK-35292          
1 66322U 25253D   26193.49169699  .00012370  00000+0  45802-3 0  9994
2 66322  43.0032 227.5042 0002336 301.1877  58.8746 15.27597610 39335
STARLINK-35309          
1 66323U 25253E   26193.14046669  .00044099  00000+0  15998-2 0  9993
2 66323  42.9988 230.0103 0001783 241.7053 118.3619 15.27635112 39275
STARLINK-35506          
1 66324U 25253F   26193.15446316  .00008635  00000+0  32289-3 0  9997
2 66324  42.9998 229.2604 0000957 250.8374 109.2374 15.27583736 39284
STARLINK-35504          
1 66325U 25253G   26193.07765317  .00009371  00000+0  34945-3 0  9993
2 66325  43.0015 230.4061 0002109 246.4308 113.6322 15.27596642 39267
STARLINK-35479          
1 66326U 25253H   26193.11863588  .00010213  00000+0  38008-3 0  9999
2 66326  42.9971 229.8508 0002666 294.8439  65.2135 15.27584115 39272
STARLINK-35507          
1 66327U 25253J   26193.83335647 -.00018487  00000+0 -66467-3 0  9992
2 66327  43.0016 225.5305 0001758 270.2905 185.1252 15.27543341  5800
STARLINK-35460          
1 66328U 25253K   26193.59306428  .00007774  00000+0  29166-3 0  9991
2 66328  42.9985 227.3941 0001287 259.1807 100.8900 15.27587426 39346
STARLINK-35505          
1 66329U 25253L   26193.44170979  .00009175  00000+0  34246-3 0  9998
2 66329  42.9983 227.9776 0002502 286.2041  73.8535 15.27584011 39327
STARLINK-35512          
1 66330U 25253M   26193.12891514  .00010556  00000+0  39241-3 0  9995
2 66330  42.9939 229.9339 0000379 269.2690  90.8119 15.27592431 39274
STARLINK-35257          
1 66331U 25253N   26193.15831929  .00007923  00000+0  29713-3 0  9990
2 66331  43.0010 229.2861 0000641 230.0933 129.9862 15.27580991 39286
STARLINK-35322          
1 66332U 25253P   26193.16860389  .00010247  00000+0  38150-3 0  9992
2 66332  42.9999 229.3725 0001509 235.4862 124.5847 15.27568979 39281
STARLINK-35400          
1 66333U 25253Q   26193.47511930  .00011514  00000+0  42715-3 0  9992
2 66333  43.0034 228.2304 0001996 279.1326  80.9300 15.27590556 39325
STARLINK-35407          
1 66334U 25253R   26193.16089456  .00019897  00000+0  72985-3 0  9996
2 66334  43.0009 229.3135 0001493 279.3119  80.7564 15.27613644 39285
STARLINK-35417          
1 66335U 25253S   26193.11735140  .00009490  00000+0  35388-3 0  9994
2 66335  42.9973 229.8437 0001329 272.9473  87.1226 15.27583847 39270
STARLINK-35404          
1 66336U 25253T   26193.10834986  .00010999  00000+0  40838-3 0  9994
2 66336  42.9943 229.7731 0000875 341.9092  18.1728 15.27598953 39278
STARLINK-34783          
1 66337U 25253U   26193.47383213  .00007017  00000+0  26427-3 0  9992
2 66337  43.0034 228.2187 0002069 256.7822 103.2799 15.27578611 39321
STARLINK-35477          
1 66338U 25253V   26193.10706632  .00008548  00000+0  31978-3 0  9994
2 66338  42.9990 229.7701 0002171 278.4050  81.6556 15.27580168 39271
STARLINK-35443          
1 66339U 25253W   26193.17887934  .00009300  00000+0  34696-3 0  9994
2 66339  42.9981 229.4401 0001683 266.9633  93.1026 15.27588477 39284
STARLINK-35218          
1 66340U 25253X   26193.13662341  .00010469  00000+0  38924-3 0  9991
2 66340  42.9947 229.9831 0000405 260.6021  99.4784 15.27592324 39278
STARLINK-35522          
1 66341U 25253Y   26193.12634183  .00009839  00000+0  36647-3 0  9993
2 66341  42.9957 229.9091 0000709 263.5921  96.4849 15.27590800 39272
STARLINK-35535          
1 66342U 25253Z   26193.18661121  .00012432  00000+0  46049-3 0  9992
2 66342  42.9988 229.5017 0001810 264.9212  95.1433 15.27581696 39282
STARLINK-35467          
1 66343U 25253AA  26193.45969918  .00012496  00000+0  46274-3 0  9998
2 66343  43.0007 228.1135 0001695 273.1342  86.9316 15.27587697 39320
STARLINK-35511          
1 66344U 25253AB  26193.15189167  .00015594  00000+0  57481-3 0  9990
2 66344  43.0003 229.2351 0001240 185.7463 174.3375 15.27590406 39281
STARLINK-35440          
1 66345U 25253AC  26193.44942287  .00006829  00000+0  25742-3 0  9999
2 66345  42.9981 228.0305 0001501 275.3290  84.7391 15.27585792 39324
STARLINK-35482          
1 66346U 25253AD  26193.49296115  .00012220  00000+0  45277-3 0  9994
2 66346  42.9973 227.4982 0001286 228.7372 131.3369 15.27585835 39336
STARLINK-35438          
1 66347U 25253AE  26193.48396764  .00009001  00000+0  33598-3 0  9991
2 66347  43.0018 227.4287 0001455 279.0584  81.0103 15.27604316 39332
STARLINK-35849          
1 66348U 25254A   26193.74840580  .00014569  00000+0  44141-3 0  9993
2 66348  53.1616  11.5073 0001366 103.8014 256.3141 15.34406065 39289
STARLINK-35848          
1 66349U 25254B   26193.71494815  .00009824  00000+0  32778-3 0  9998
2 66349  53.1583  11.3016 0000923  82.2655 277.8451 15.31713666 38126
STARLINK-35829          
1 66350U 25254C   26193.76619738  .00022628  00000+0  73838-3 0  9997
2 66350  53.1607  10.9095 0000783  84.8356 275.2734 15.31715070 38135
STARLINK-35828          
1 66351U 25254D   26193.73818795  .00012654  00000+0  41862-3 0  9999
2 66351  53.1605  10.7312 0001219  97.6304 262.4836 15.31716737 38136
STARLINK-35850          
1 66352U 25254E   26193.79268786  .00008315  00000+0  29256-3 0  9997
2 66352  53.1603  11.0680 0001308  99.8360 260.2788 15.30198609 38135
STARLINK-35869          
1 66353U 25254F   26193.78635310  .00010284  00000+0  35884-3 0  9990
2 66353  53.1594  11.0234 0000731 118.3230 241.7845 15.30201036 38139
STARLINK-35895          
1 66354U 25254G   26193.74808396  .00020599  00000+0  63554-3 0  9998
2 66354  53.1605  11.5106 0001309 134.7903 225.3206 15.33568356 38129
STARLINK-35861          
1 66355U 25254H   26193.77485778  .00016269  00000+0  56001-3 0  9995
2 66355  53.1599  11.6654 0000456 150.3658 209.7369 15.30210685 38126
STARLINK-35851          
1 66356U 25254J   26193.81143970  .00013185  00000+0  40061-3 0  9999
2 66356  53.1616  11.1880 0001187  98.8629 261.2508 15.34405070 38136
STARLINK-35817          
1 66357U 25254K   26193.83335647  .00016128  00000+0  50069-3 0  9995
2 66357  53.1603  11.2087 0001302  68.2834 349.7010 15.33545759  5863
STARLINK-35807          
1 66358U 25254L   26193.69628883  .00139846  00000+0  44466-2 0  9993
2 66358  53.1607  11.1783 0002178  84.5790 275.5459 15.31611625 38126
STARLINK-35805          
1 66359U 25254M   26193.85935851  .00006461  00000+0  21977-3 0  9997
2 66359  53.1607  10.0657 0001285  92.4214 267.6935 15.31702580 39282
STARLINK-35823          
1 66360U 25254N   26193.72631767  .00007776  00000+0  27439-3 0  9993
2 66360  53.1592  11.3637 0001088  76.1355 283.9767 15.30201250 38128
STARLINK-35813          
1 66361U 25254P   26193.79877573  .00010839  00000+0  36039-3 0  9998
2 66361  53.1587  10.3982 0000796  75.5788 284.5302 15.31711766 38146
STARLINK-35822          
1 66362U 25254Q   26193.75471501  .00020721  00000+0  62237-3 0  9996
2 66362  53.1611  11.5411 0001185 122.9916 237.1200 15.34416800 38121
STARLINK-35806          
1 66363U 25254R   26193.78435558  .00012821  00000+0  44416-3 0  9993
2 66363  53.1592  11.7253 0000954 100.6423 259.4685 15.30207187 38121
